FLOCK 4H-21             
1 66724U 25276BL  25358.92334200  .00012967  00000+0  63327-3 0  9991
2 66724  97.4384  70.4998 0002830 154.8200 205.3173 15.18387887  3226
FLOCK 4H-22             
1 66725U 25276BM  25358.87193615  .00006579  00000+0  33137-3 0  9997
2 66725  97.4373  70.4103 0001509 278.6483  81.4579 15.17515229  3969
FLOCK 4H-23             
1 66726U 25276BN  25358.66668981  .00054338  00000+0  27168-2 0  9990
2 66726  97.4440  70.2245 0003565 232.7389  65.5049 15.17231684  3358
FLOCK 4H-24             
1 66727U 25276BP  25358.87405742  .00006222  00000+0  31501-3 0  9994
2 66727  97.4437  70.4355 0002867 252.0788 108.0133 15.17349732  3969
FLOCK 4H-25             
1 66728U 25276BQ  25358.92471429  .00006091  00000+0  30076-3 0  9996
2 66728  97.4394  70.5029 0001743 115.6442 244.4972 15.18236988  3251
FLOCK 4H-26             
1 66729U 25276BR  25358.87745932  .00010018  00000+0  50739-3 0  9996
2 66729  97.4389  70.4123 0003684 250.9397 109.1438 15.17177496  3967
FLOCK 4H-27             
1 66730U 25276BS  25358.86111080  .00010095  00000+0  49789-3 0  9996
2 66730  97.4369  70.4263 0001356 125.6579 234.4782 15.18111368  3967
FLOCK 4H-28             
1 66731U 25276BT  25358.81121022  .00015432  00000+0  77978-3 0  9990
2 66731  97.4378  70.3439 0003073 254.7297 105.3597 15.17156183  3953
FLOCK 4H-29             
1 66732U 25276BU  25357.16008232  .00038183  00000+0  19114-2 0  9990
2 66732  97.4392  68.7307 0002088 236.6345 123.4689 15.17286901  3701
FLOCK 4H-30             
1 66733U 25276BV  25358.91670139 -.00027267  00000+0 -13713-2 0  9998
2 66733  97.4434  70.4704 0003165 253.6419 329.0770 15.17291425  3395
FLOCK 4H-31             
1 66734U 25276BW  25358.33336806 -.00053880  00000+0 -27263-2 0  9990
2 66734  97.4368  69.8732 0002752 268.1350  10.7747 15.17247903  3302
FLOCK 4H-32             
1 66735U 25276BX  25358.81031754 -.00008851  00000+0 -44288-3 0  9993
2 66735  97.4425  70.3611 0004196 202.3910 157.7141 15.17199295  3957
