CCSDS_OMM_VERS = 2.0
CREATION_DATE  = 
ORIGINATOR     = 

OBJECT_NAME    = FLOCK 4H-21
OBJECT_ID      = 2025-276BL
CENTER_NAME    = EARTH
REF_FRAME      = TEME
TIME_SYSTEM    = UTC
MEAN_ELEMENT_THEORY = SGP/SGP4

EPOCH          = 2025-12-24T22:09:36.748800
MEAN_MOTION    = 15.18387887
ECCENTRICITY   = .000283
INCLINATION    = 97.4384
RA_OF_ASC_NODE = 70.4998
ARG_OF_PERICENTER = 154.8200
MEAN_ANOMALY   = 205.3173

EPHEMERIS_TYPE = 0
CLASSIFICATION_TYPE = U
NORAD_CAT_ID   = 66724
ELEMENT_SET_NO = 999
REV_AT_EPOCH   = 322
BSTAR          = .6332692E-3
MEAN_MOTION_DOT = .12967E-3
MEAN_MOTION_DDOT = 0

CCSDS_OMM_VERS = 2.0
CREATION_DATE  = 
ORIGINATOR     = 

OBJECT_NAME    = FLOCK 4H-22
OBJECT_ID      = 2025-276BM
CENTER_NAME    = EARTH
REF_FRAME      = TEME
TIME_SYSTEM    = UTC
MEAN_ELEMENT_THEORY = SGP/SGP4

EPOCH          = 2025-12-24T20:55:35.283360
MEAN_MOTION    = 15.17515229
ECCENTRICITY   = .0001509
INCLINATION    = 97.4373
RA_OF_ASC_NODE = 70.4103
ARG_OF_PERICENTER = 278.6483
MEAN_ANOMALY   = 81.4579

EPHEMERIS_TYPE = 0
CLASSIFICATION_TYPE = U
NORAD_CAT_ID   = 66725
ELEMENT_SET_NO = 999
REV_AT_EPOCH   = 396
BSTAR          = .33136899E-3
MEAN_MOTION_DOT = .6579E-4
MEAN_MOTION_DDOT = 0

CCSDS_OMM_VERS = 2.0
CREATION_DATE  = 
ORIGINATOR     = 

OBJECT_NAME    = FLOCK 4H-23
OBJECT_ID      = 2025-276BN
CENTER_NAME    = EARTH
REF_FRAME      = TEME
TIME_SYSTEM    = UTC
MEAN_ELEMENT_THEORY = SGP/SGP4

EPOCH          = 2025-12-24T16:00:01.999584
MEAN_MOTION    = 15.17231684
ECCENTRICITY   = .00035654
INCLINATION    = 97.4440
RA_OF_ASC_NODE = 70.2245
ARG_OF_PERICENTER = 232.7389
MEAN_ANOMALY   = 65.5049

EPHEMERIS_TYPE = 0
CLASSIFICATION_TYPE = U
NORAD_CAT_ID   = 66726
ELEMENT_SET_NO = 999
REV_AT_EPOCH   = 335
BSTAR          = .27168143E-2
MEAN_MOTION_DOT = .54338E-3
MEAN_MOTION_DDOT = 0

CCSDS_OMM_VERS = 2.0
CREATION_DATE  = 
ORIGINATOR     = 

OBJECT_NAME    = FLOCK 4H-24
OBJECT_ID      = 2025-276BP
CENTER_NAME    = EARTH
REF_FRAME      = TEME
TIME_SYSTEM    = UTC
MEAN_ELEMENT_THEORY = SGP/SGP4

EPOCH          = 2025-12-24T20:58:38.561088
MEAN_MOTION    = 15.17349732
ECCENTRICITY   = .00028672
INCLINATION    = 97.4437
RA_OF_ASC_NODE = 70.4355
ARG_OF_PERICENTER = 252.0788
MEAN_ANOMALY   = 108.0133

EPHEMERIS_TYPE = 0
CLASSIFICATION_TYPE = U
NORAD_CAT_ID   = 66727
ELEMENT_SET_NO = 999
REV_AT_EPOCH   = 396
BSTAR          = .31501016E-3
MEAN_MOTION_DOT = .6222E-4
MEAN_MOTION_DDOT = 0

CCSDS_OMM_VERS = 2.0
CREATION_DATE  = 
ORIGINATOR     = 

OBJECT_NAME    = FLOCK 4H-25
OBJECT_ID      = 2025-276BQ
CENTER_NAME    = EARTH
REF_FRAME      = TEME
TIME_SYSTEM    = UTC
MEAN_ELEMENT_THEORY = SGP/SGP4

EPOCH          = 2025-12-24T22:11:35.314656
MEAN_MOTION    = 15.18236988
ECCENTRICITY   = .00017435
INCLINATION    = 97.4394
RA_OF_ASC_NODE = 70.5029
ARG_OF_PERICENTER = 115.6442
MEAN_ANOMALY   = 244.4972

EPHEMERIS_TYPE = 0
CLASSIFICATION_TYPE = U
NORAD_CAT_ID   = 66728
ELEMENT_SET_NO = 999
REV_AT_EPOCH   = 325
BSTAR          = .30076272E-3
MEAN_MOTION_DOT = .6091E-4
MEAN_MOTION_DDOT = 0

CCSDS_OMM_VERS = 2.0
CREATION_DATE  = 
ORIGINATOR     = 

OBJECT_NAME    = FLOCK 4H-26
OBJECT_ID      = 2025-276BR
CENTER_NAME    = EARTH
REF_FRAME      = TEME
TIME_SYSTEM    = UTC
MEAN_ELEMENT_THEORY = SGP/SGP4

EPOCH          = 2025-12-24T21:03:32.485248
MEAN_MOTION    = 15.17177496
ECCENTRICITY   = .00036845
INCLINATION    = 97.4389
RA_OF_ASC_NODE = 70.4123
ARG_OF_PERICENTER = 250.9397
MEAN_ANOMALY   = 109.1438

EPHEMERIS_TYPE = 0
CLASSIFICATION_TYPE = U
NORAD_CAT_ID   = 66729
ELEMENT_SET_NO = 999
REV_AT_EPOCH   = 396
BSTAR          = .50739253E-3
MEAN_MOTION_DOT = .10018E-3
MEAN_MOTION_DDOT = 0

CCSDS_OMM_VERS = 2.0
CREATION_DATE  = 
ORIGINATOR     = 

OBJECT_NAME    = FLOCK 4H-27
OBJECT_ID      = 2025-276BS
CENTER_NAME    = EARTH
REF_FRAME      = TEME
TIME_SYSTEM    = UTC
MEAN_ELEMENT_THEORY = SGP/SGP4

EPOCH          = 2025-12-24T20:39:59.973120
MEAN_MOTION    = 15.18111368
ECCENTRICITY   = .00013561
INCLINATION    = 97.4369
RA_OF_ASC_NODE = 70.4263
ARG_OF_PERICENTER = 125.6579
MEAN_ANOMALY   = 234.4782

EPHEMERIS_TYPE = 0
CLASSIFICATION_TYPE = U
NORAD_CAT_ID   = 66730
ELEMENT_SET_NO = 999
REV_AT_EPOCH   = 396
BSTAR          = .49789275E-3
MEAN_MOTION_DOT = .10095E-3
MEAN_MOTION_DDOT = 0

CCSDS_OMM_VERS = 2.0
CREATION_DATE  = 
ORIGINATOR     = 

OBJECT_NAME    = FLOCK 4H-28
OBJECT_ID      = 2025-276BT
CENTER_NAME    = EARTH
REF_FRAME      = TEME
TIME_SYSTEM    = UTC
MEAN_ELEMENT_THEORY = SGP/SGP4

EPOCH          = 2025-12-24T19:28:08.563008
MEAN_MOTION    = 15.17156183
ECCENTRICITY   = .00030736
INCLINATION    = 97.4378
RA_OF_ASC_NODE = 70.3439
ARG_OF_PERICENTER = 254.7297
MEAN_ANOMALY   = 105.3597

EPHEMERIS_TYPE = 0
CLASSIFICATION_TYPE = U
NORAD_CAT_ID   = 66731
ELEMENT_SET_NO = 999
REV_AT_EPOCH   = 395
BSTAR          = .77977693E-3
MEAN_MOTION_DOT = .15432E-3
MEAN_MOTION_DDOT = 0

CCSDS_OMM_VERS = 2.0
CREATION_DATE  = 
ORIGINATOR     = 

OBJECT_NAME    = FLOCK 4H-29
OBJECT_ID      = 2025-276BU
CENTER_NAME    = EARTH
REF_FRAME      = TEME
TIME_SYSTEM    = UTC
MEAN_ELEMENT_THEORY = SGP/SGP4

EPOCH          = 2025-12-23T03:50:31.112448
MEAN_MOTION    = 15.17286901
ECCENTRICITY   = .00020889
INCLINATION    = 97.4392
RA_OF_ASC_NODE = 68.7307
ARG_OF_PERICENTER = 236.6345
MEAN_ANOMALY   = 123.4689

EPHEMERIS_TYPE = 0
CLASSIFICATION_TYPE = U
NORAD_CAT_ID   = 66732
ELEMENT_SET_NO = 999
REV_AT_EPOCH   = 370
BSTAR          = .19114481E-2
MEAN_MOTION_DOT = .38183E-3
MEAN_MOTION_DDOT = 0

CCSDS_OMM_VERS = 2.0
CREATION_DATE  = 
ORIGINATOR     = 

OBJECT_NAME    = FLOCK 4H-30
OBJECT_ID      = 2025-276BV
CENTER_NAME    = EARTH
REF_FRAME      = TEME
TIME_SYSTEM    = UTC
MEAN_ELEMENT_THEORY = SGP/SGP4

EPOCH          = 2025-12-24T22:00:03.000096
MEAN_MOTION    = 15.17291425
ECCENTRICITY   = .00031653
INCLINATION    = 97.4434
RA_OF_ASC_NODE = 70.4704
ARG_OF_PERICENTER = 253.6419
MEAN_ANOMALY   = 329.0770

EPHEMERIS_TYPE = 0
CLASSIFICATION_TYPE = U
NORAD_CAT_ID   = 66733
ELEMENT_SET_NO = 999
REV_AT_EPOCH   = 339
BSTAR          = -.13712617E-2
MEAN_MOTION_DOT = -.27267E-3
MEAN_MOTION_DDOT = 0

CCSDS_OMM_VERS = 2.0
CREATION_DATE  = 
ORIGINATOR     = 

OBJECT_NAME    = FLOCK 4H-31
OBJECT_ID      = 2025-276BW
CENTER_NAME    = EARTH
REF_FRAME      = TEME
TIME_SYSTEM    = UTC
MEAN_ELEMENT_THEORY = SGP/SGP4

EPOCH          = 2025-12-24T08:00:03.000384
MEAN_MOTION    = 15.17247903
ECCENTRICITY   = .00027526
INCLINATION    = 97.4368
RA_OF_ASC_NODE = 69.8732
ARG_OF_PERICENTER = 268.1350
MEAN_ANOMALY   = 10.7747

EPHEMERIS_TYPE = 0
CLASSIFICATION_TYPE = U
NORAD_CAT_ID   = 66734
ELEMENT_SET_NO = 999
REV_AT_EPOCH   = 330
BSTAR          = -.2726258E-2
MEAN_MOTION_DOT = -.5388E-3
MEAN_MOTION_DDOT = 0

CCSDS_OMM_VERS = 2.0
CREATION_DATE  = 
ORIGINATOR     = 

OBJECT_NAME    = FLOCK 4H-32
OBJECT_ID      = 2025-276BX
CENTER_NAME    = EARTH
REF_FRAME      = TEME
TIME_SYSTEM    = UTC
MEAN_ELEMENT_THEORY = SGP/SGP4

EPOCH          = 2025-12-24T19:26:51.435456
MEAN_MOTION    = 15.17199295
ECCENTRICITY   = .00041968
INCLINATION    = 97.4425
RA_OF_ASC_NODE = 70.3611
ARG_OF_PERICENTER = 202.3910
MEAN_ANOMALY   = 157.7141

EPHEMERIS_TYPE = 0
CLASSIFICATION_TYPE = U
NORAD_CAT_ID   = 66735
ELEMENT_SET_NO = 999
REV_AT_EPOCH   = 395
BSTAR          = -.44288349E-3
MEAN_MOTION_DOT = -.8851E-4
MEAN_MOTION_DDOT = 0

